STARLINK-37236          
1 68781U 26086R   26117.56008263  .00666417  19278-3  15943-2 0  9993
2 68781  97.2779 152.9919 0003847 324.9644  35.1379 15.96575026  1187
