{
  "norad_id": 68781,
  "name": "STARLINK-37236",
  "history": [
    {
      "epoch": "2026-04-27T13:26:31.139232Z",
      "apogee_km": 286.49231166626305,
      "perigee_km": 281.3663845766914,
      "latitude_deg": -3.7158697606679156e-07,
      "longitude_deg": 95.81400857458961,
      "height_km": 285.03040276080145,
      "semi_major_axis_km": 6662.066348121477,
      "eccentricity": 0.00038471,
      "inclination_deg": 97.2779,
      "raan_deg": 152.9919,
      "arg_perigee_deg": 324.9644,
      "mean_anomaly_deg": 35.1379,
      "mean_motion_rev_day": 15.96575026
    }
  ]
}